CCSDS_OMM_VERS = 2.0
CREATION_DATE  = 
ORIGINATOR     = 

OBJECT_NAME    = DELTA 2 R/B(1)
OBJECT_ID      = 1990-008B
CENTER_NAME    = EARTH
REF_FRAME      = TEME
TIME_SYSTEM    = UTC
MEAN_ELEMENT_THEORY = SGP/SGP4

EPOCH          = 2026-02-22T23:48:36.570816
MEAN_MOTION    = 15.53788808
ECCENTRICITY   = .00883671
INCLINATION    = 35.6036
RA_OF_ASC_NODE = 271.1525
ARG_OF_PERICENTER = 121.7839
MEAN_ANOMALY   = 239.1540

EPHEMERIS_TYPE = 0
CLASSIFICATION_TYPE = U
NORAD_CAT_ID   = 20453
ELEMENT_SET_NO = 999
REV_AT_EPOCH   = 92384
BSTAR          = .87846811E-3
MEAN_MOTION_DOT = .69712E-3
MEAN_MOTION_DDOT = 0

CCSDS_OMM_VERS = 2.0
CREATION_DATE  = 
ORIGINATOR     = 

OBJECT_NAME    = COSMOS 2058
OBJECT_ID      = 1990-010A
CENTER_NAME    = EARTH
REF_FRAME      = TEME
TIME_SYSTEM    = UTC
MEAN_ELEMENT_THEORY = SGP/SGP4

EPOCH          = 2026-02-23T11:29:20.573376
MEAN_MOTION    = 15.11180628
ECCENTRICITY   = .0010399
INCLINATION    = 82.4673
RA_OF_ASC_NODE = 61.4283
ARG_OF_PERICENTER = 31.4274
MEAN_ANOMALY   = 328.7575

EPHEMERIS_TYPE = 0
CLASSIFICATION_TYPE = U
NORAD_CAT_ID   = 20465
ELEMENT_SET_NO = 999
REV_AT_EPOCH   = 94009
BSTAR          = .27287E-3
MEAN_MOTION_DOT = .4612E-4
MEAN_MOTION_DDOT = 0

CCSDS_OMM_VERS = 2.0
CREATION_DATE  = 
ORIGINATOR     = 

OBJECT_NAME    = SL-14 R/B
OBJECT_ID      = 1990-010B
CENTER_NAME    = EARTH
REF_FRAME      = TEME
TIME_SYSTEM    = UTC
MEAN_ELEMENT_THEORY = SGP/SGP4

EPOCH          = 2026-02-23T02:50:27.917088
MEAN_MOTION    = 14.83555347
ECCENTRICITY   = .0019611
INCLINATION    = 82.5002
RA_OF_ASC_NODE = 281.0788
ARG_OF_PERICENTER = 352.4018
MEAN_ANOMALY   = 7.6897

EPHEMERIS_TYPE = 0
CLASSIFICATION_TYPE = U
NORAD_CAT_ID   = 20466
ELEMENT_SET_NO = 999
REV_AT_EPOCH   = 92632
BSTAR          = .44074E-4
MEAN_MOTION_DOT = .388E-5
MEAN_MOTION_DDOT = 0

CCSDS_OMM_VERS = 2.0
CREATION_DATE  = 
ORIGINATOR     = 

OBJECT_NAME    = SL-14 R/B
OBJECT_ID      = 1990-018B
CENTER_NAME    = EARTH
REF_FRAME      = TEME
TIME_SYSTEM    = UTC
MEAN_ELEMENT_THEORY = SGP/SGP4

EPOCH          = 2026-02-23T11:02:00.781728
MEAN_MOTION    = 14.82127526
ECCENTRICITY   = .0017328
INCLINATION    = 82.5181
RA_OF_ASC_NODE = 236.3921
ARG_OF_PERICENTER = 135.4311
MEAN_ANOMALY   = 224.8301

EPHEMERIS_TYPE = 0
CLASSIFICATION_TYPE = U
NORAD_CAT_ID   = 20511
ELEMENT_SET_NO = 999
REV_AT_EPOCH   = 92047
BSTAR          = .587E-4
MEAN_MOTION_DOT = .492E-5
MEAN_MOTION_DDOT = 0

CCSDS_OMM_VERS = 2.0
CREATION_DATE  = 
ORIGINATOR     = 

OBJECT_NAME    = HST
OBJECT_ID      = 1990-037B
CENTER_NAME    = EARTH
REF_FRAME      = TEME
TIME_SYSTEM    = UTC
MEAN_ELEMENT_THEORY = SGP/SGP4

EPOCH          = 2026-02-23T10:56:44.574144
MEAN_MOTION    = 15.29234938
ECCENTRICITY   = .0001148
INCLINATION    = 28.4686
RA_OF_ASC_NODE = 137.0790
ARG_OF_PERICENTER = 328.4128
MEAN_ANOMALY   = 31.6398

EPHEMERIS_TYPE = 0
CLASSIFICATION_TYPE = U
NORAD_CAT_ID   = 20580
ELEMENT_SET_NO = 999
REV_AT_EPOCH   = 77113
BSTAR          = .28131E-3
MEAN_MOTION_DOT = .8444E-4
MEAN_MOTION_DDOT = 0

CCSDS_OMM_VERS = 2.0
CREATION_DATE  = 
ORIGINATOR     = 

OBJECT_NAME    = SL-16 R/B
OBJECT_ID      = 1990-046B
CENTER_NAME    = EARTH
REF_FRAME      = TEME
TIME_SYSTEM    = UTC
MEAN_ELEMENT_THEORY = SGP/SGP4

EPOCH          = 2026-02-23T04:55:45.894720
MEAN_MOTION    = 14.15014983
ECCENTRICITY   = .0015712
INCLINATION    = 71.0017
RA_OF_ASC_NODE = 328.3328
ARG_OF_PERICENTER = 319.4937
MEAN_ANOMALY   = 40.5015

EPHEMERIS_TYPE = 0
CLASSIFICATION_TYPE = U
NORAD_CAT_ID   = 20625
ELEMENT_SET_NO = 999
REV_AT_EPOCH   = 84634
BSTAR          = .63411167E-4
MEAN_MOTION_DOT = .75E-6
MEAN_MOTION_DDOT = 0

CCSDS_OMM_VERS = 2.0
CREATION_DATE  = 
ORIGINATOR     = 

OBJECT_NAME    = COSMOS 2084
OBJECT_ID      = 1990-055A
CENTER_NAME    = EARTH
REF_FRAME      = TEME
TIME_SYSTEM    = UTC
MEAN_ELEMENT_THEORY = SGP/SGP4

EPOCH          = 2026-02-23T07:25:42.639456
MEAN_MOTION    = 15.05548302
ECCENTRICITY   = .0019319
INCLINATION    = 62.7913
RA_OF_ASC_NODE = 24.6184
ARG_OF_PERICENTER = 186.6382
MEAN_ANOMALY   = 173.4465

EPHEMERIS_TYPE = 0
CLASSIFICATION_TYPE = U
NORAD_CAT_ID   = 20663
ELEMENT_SET_NO = 999
REV_AT_EPOCH   = 93415
BSTAR          = .23672E-3
MEAN_MOTION_DOT = .3236E-4
MEAN_MOTION_DDOT = 0

CCSDS_OMM_VERS = 2.0
CREATION_DATE  = 
ORIGINATOR     = 

OBJECT_NAME    = SL-6 R/B(2)
OBJECT_ID      = 1990-055D
CENTER_NAME    = EARTH
REF_FRAME      = TEME
TIME_SYSTEM    = UTC
MEAN_ELEMENT_THEORY = SGP/SGP4

EPOCH          = 2026-02-23T09:44:06.967680
MEAN_MOTION    = 15.03519922
ECCENTRICITY   = .0022551
INCLINATION    = 62.7833
RA_OF_ASC_NODE = 302.4244
ARG_OF_PERICENTER = 343.3203
MEAN_ANOMALY   = 16.7152

EPHEMERIS_TYPE = 0
CLASSIFICATION_TYPE = U
NORAD_CAT_ID   = 20666
ELEMENT_SET_NO = 999
REV_AT_EPOCH   = 93604
BSTAR          = .1804E-3
MEAN_MOTION_DOT = .2285E-4
MEAN_MOTION_DDOT = 0

CCSDS_OMM_VERS = 2.0
CREATION_DATE  = 
ORIGINATOR     = 

OBJECT_NAME    = SL-8 R/B
OBJECT_ID      = 1990-078B
CENTER_NAME    = EARTH
REF_FRAME      = TEME
TIME_SYSTEM    = UTC
MEAN_ELEMENT_THEORY = SGP/SGP4

EPOCH          = 2026-02-23T07:51:27.025632
MEAN_MOTION    = 14.88546538
ECCENTRICITY   = .0365318
INCLINATION    = 82.9004
RA_OF_ASC_NODE = 264.2235
ARG_OF_PERICENTER = 62.1742
MEAN_ANOMALY   = 301.5993

EPHEMERIS_TYPE = 0
CLASSIFICATION_TYPE = U
NORAD_CAT_ID   = 20775
ELEMENT_SET_NO = 999
REV_AT_EPOCH   = 80716
BSTAR          = .54329E-3
MEAN_MOTION_DOT = .18511E-3
MEAN_MOTION_DDOT = 0

CCSDS_OMM_VERS = 2.0
CREATION_DATE  = 
ORIGINATOR     = 

OBJECT_NAME    = SL-8 R/B
OBJECT_ID      = 1991-006B
CENTER_NAME    = EARTH
REF_FRAME      = TEME
TIME_SYSTEM    = UTC
MEAN_ELEMENT_THEORY = SGP/SGP4

EPOCH          = 2026-02-23T07:23:52.895040
MEAN_MOTION    = 13.77492662
ECCENTRICITY   = .0023668
INCLINATION    = 82.9457
RA_OF_ASC_NODE = 180.7367
ARG_OF_PERICENTER = 76.8347
MEAN_ANOMALY   = 311.2874

EPHEMERIS_TYPE = 0
CLASSIFICATION_TYPE = U
NORAD_CAT_ID   = 21088
ELEMENT_SET_NO = 999
REV_AT_EPOCH   = 76209
BSTAR          = .39865E-4
MEAN_MOTION_DOT = .55E-6
MEAN_MOTION_DDOT = 0

CCSDS_OMM_VERS = 2.0
CREATION_DATE  = 
ORIGINATOR     = 

OBJECT_NAME    = OKEAN-3
OBJECT_ID      = 1991-039A
CENTER_NAME    = EARTH
REF_FRAME      = TEME
TIME_SYSTEM    = UTC
MEAN_ELEMENT_THEORY = SGP/SGP4

EPOCH          = 2026-02-23T07:34:11.405856
MEAN_MOTION    = 15.04691593
ECCENTRICITY   = .0015076
INCLINATION    = 82.5205
RA_OF_ASC_NODE = 350.7657
ARG_OF_PERICENTER = 25.9068
MEAN_ANOMALY   = 334.2910

EPHEMERIS_TYPE = 0
CLASSIFICATION_TYPE = U
NORAD_CAT_ID   = 21397
ELEMENT_SET_NO = 999
REV_AT_EPOCH   = 86287
BSTAR          = .27793E-3
MEAN_MOTION_DOT = .3947E-4
MEAN_MOTION_DDOT = 0

CCSDS_OMM_VERS = 2.0
CREATION_DATE  = 
ORIGINATOR     = 

OBJECT_NAME    = COSMOS 2151
OBJECT_ID      = 1991-042A
CENTER_NAME    = EARTH
REF_FRAME      = TEME
TIME_SYSTEM    = UTC
MEAN_ELEMENT_THEORY = SGP/SGP4

EPOCH          = 2026-02-23T11:24:12.284352
MEAN_MOTION    = 15.00045895
ECCENTRICITY   = .0014092
INCLINATION    = 82.4941
RA_OF_ASC_NODE = 97.3907
ARG_OF_PERICENTER = 106.1343
MEAN_ANOMALY   = 254.1433

EPHEMERIS_TYPE = 0
CLASSIFICATION_TYPE = U
NORAD_CAT_ID   = 21422
ELEMENT_SET_NO = 999
REV_AT_EPOCH   = 86106
BSTAR          = .1348E-3
MEAN_MOTION_DOT = .1708E-4
MEAN_MOTION_DDOT = 0

