DELTA 2 R/B(1)          
1 20453U 90008B   26053.99208994  .00069712  00000+0  87847-3 0  9998
2 20453  35.6036 271.1525 0088367 121.7839 239.1540 15.53788808923848
COSMOS 2058             
1 20465U 90010A   26054.47871034  .00004612  00000+0  27287-3 0  9999
2 20465  82.4673  61.4283 0010399  31.4274 328.7575 15.11180628940098
SL-14 R/B               
1 20466U 90010B   26054.11837867  .00000388  00000+0  44074-4 0  9997
2 20466  82.5002 281.0788 0019611 352.4018   7.6897 14.83555347926326
SL-14 R/B               
1 20511U 90018B   26054.45973127  .00000492  00000+0  58700-4 0  9990
2 20511  82.5181 236.3921 0017328 135.4311 224.8301 14.82127526920471
HST                     
1 20580U 90037B   26054.45607146  .00008444  00000+0  28131-3 0  9991
2 20580  28.4686 137.0790 0001148 328.4128  31.6398 15.29234938771135
SL-16 R/B               
1 20625U 90046B   26054.20539230  .00000075  00000+0  63411-4 0  9995
2 20625  71.0017 328.3328 0015712 319.4937  40.5015 14.15014983846340
COSMOS 2084             
1 20663U 90055A   26054.30952129  .00003236  00000+0  23672-3 0  9990
2 20663  62.7913  24.6184 0019319 186.6382 173.4465 15.05548302934154
SL-6 R/B(2)             
1 20666U 90055D   26054.40563620  .00002285  00000+0  18040-3 0  9994
2 20666  62.7833 302.4244 0022551 343.3203  16.7152 15.03519922936044
SL-8 R/B                
1 20775U 90078B   26054.32739613  .00018511  00000+0  54329-3 0  9997
2 20775  82.9004 264.2235 0365318  62.1742 301.5993 14.88546538807162
SL-8 R/B                
1 21088U 91006B   26054.30825110  .00000055  00000+0  39865-4 0  9996
2 21088  82.9457 180.7367 0023668  76.8347 311.2874 13.77492662762095
OKEAN-3                 
1 21397U 91039A   26054.31540979  .00003947  00000+0  27793-3 0  9992
2 21397  82.5205 350.7657 0015076  25.9068 334.2910 15.04691593862874
COSMOS 2151             
1 21422U 91042A   26054.47514218  .00001708  00000+0  13480-3 0  9990
2 21422  82.4941  97.3907 0014092 106.1343 254.1433 15.00045895861060
